{"fetched_at":"2026-03-29T12:54:09Z","count":15711,"tles":[{"name":"STARLINK-32579","line1":"1 61922U 24207L   26087.67842936  .00034520  00000+0  12569-2 0  9991","line2":"2 61922  43.0005 178.1802 0001276 264.1508  95.9198 15.27609903 77583","category":"Starlink"}]}