{
  "norad_id": 61922,
  "name": "STARLINK-32579",
  "history": [
    {
      "epoch": "2026-03-28T16:16:56.296704",
      "apogee_km": 483.8350330814301,
      "perigee_km": 482.0840812400429,
      "latitude_deg": -20.71357432241176,
      "longitude_deg": 77.32921855989844,
      "semi_major_axis_km": 6861.096557160737,
      "eccentricity": 0.0001276,
      "inclination_deg": 43.0005,
      "raan_deg": 178.1802,
      "arg_perigee_deg": 264.1508,
      "mean_anomaly_deg": 95.9198,
      "mean_motion_rev_day": 15.27609903
    }
  ]
}